SEEDS II (CO-66)        
1 32791U 08021J   26068.92109284  .00023758  00000+0  84213-3 0  9995
2 32791  97.7519  62.3611 0001448 359.2618   0.8619 15.29097235972108
STARLINK-31238          
1 58853U 24019A   26068.48494196 -.00000141  00000+0  44063-5 0  9990
2 58853  43.0033 249.8573 0001476 277.3704  82.6980 15.27575974119051
